[{"OBJECT_NAME":"DEIMOS-2","OBJECT_ID":"2014-033D","EPOCH":"2026-03-09T21:31:18.602976","MEAN_MOTION":14.93411649,"ECCENTRICITY":0.00011373,"INCLINATION":97.5977,"RA_OF_ASC_NODE":306.8093,"ARG_OF_PERICENTER":55.3635,"MEAN_ANOMALY":304.7692,"EPHEMERIS_TYPE":0,"CLASSIFICATION_TYPE":"U","NORAD_CAT_ID":40013,"ELEMENT_SET_NO":999,"REV_AT_EPOCH":62290,"BSTAR":0.00010160642,"MEAN_MOTION_DOT":1.013e-5,"MEAN_MOTION_DDOT":0},{"OBJECT_NAME":"DELTA 1 R\/B","OBJECT_ID":"1969-009B","EPOCH":"2026-03-09T16:11:16.692864","MEAN_MOTION":11.46656953,"ECCENTRICITY":0.16317148,"INCLINATION":88.4192,"RA_OF_ASC_NODE":116.7958,"ARG_OF_PERICENTER":132.3404,"MEAN_ANOMALY":242.797,"EPHEMERIS_TYPE":0,"CLASSIFICATION_TYPE":"U","NORAD_CAT_ID":3670,"ELEMENT_SET_NO":999,"REV_AT_EPOCH":36779,"BSTAR":0.00035857765,"MEAN_MOTION_DOT":5.51e-6,"MEAN_MOTION_DDOT":0}]
